ORBCOMM FM37 [-]        
1 33064U 08031E   24050.16937347  .00002740  00000+0  42387-3 0  9998
2 33064  48.4396 117.6377 0005043 105.2887 279.0748 14.75925009842785
ORBCOMM FM40 [-]        
1 33065U 08031F   24049.97327829  .00003438  00000+0  50984-3 0  9991
2 33065  48.4422 108.6940 0006293 113.1343 314.6057 14.77144726842909
ORBCOMM FM109 [+]       
1 40086U 14040A   24049.94052967  .00001738  00000+0  42575-3 0  9992
2 40086  47.0023 140.0589 0002906 253.5923 106.4643 14.56330312510434
ORBCOMM FM107 [+]       
1 40087U 14040B   24049.63192717  .00001299  00000+0  32783-3 0  9999
2 40087  47.0056 142.4672 0002019 237.4480 122.6210 14.56307296510462
ORBCOMM FM106 [-]       
1 40088U 14040C   24050.13470278  .00002560  00000+0  48767-3 0  9999
2 40088  47.0620 359.2195 0018412 339.8606  20.1556 14.66629323512566
ORBCOMM FM111 [-]       
1 40089U 14040D   24049.88884436  .00004184  00000+0  55444-3 0  9999
2 40089  47.0031 270.9633 0032657  42.0520 318.2873 14.81100114518315
ORBCOMM FM104 [-]       
1 40090U 14040E   24049.58986779  .00001614  00000+0  41027-3 0  9998
2 40090  47.0046 170.6833 0016987 155.2662 204.9040 14.54879375510011
